*******************************************************************************
JPL/HORIZONS               23871 Ousha (1998 RC76)         2025-Nov-06 09:17:29
Rec #:   23871 (+COV) Soln.date: 2025-Nov-05_23:38:21   # obs: 2638 (1979-2025)
 
IAU76/J2000 helio. ecliptic osc. elements (au, days, deg., period=Julian yrs):
 
  EPOCH=  2458218.5 ! 2018-Apr-10.00 (TDB)         Residual RMS= .23659
   EC= .2221606456696456   QR= 1.854499179398809   TP= 2457580.834087959
   OM= 149.1713617488966   W=  131.0523953657826   IN= 4.994176264489051
   A= 2.384167333620393    MA= 170.7230556908504   ADIST= 2.913835487841977
   PER= 3.6814             N= .267731194           ANGMOM= .025897564
   DAN= 2.65368            DDN= 1.97791            L= 280.3317194
   B= 3.7640947            MOID= .84194303         TP= 2016-Jul-11.3340879590
 
Asteroid physical parameters (km, seconds, rotational period in hours):
   GM= n.a.                RAD= 3.3415             ROTPER= n.a.
   H= 14.95                G= .150                 B-V= n.a.
                           ALBEDO= .051            STYP= n.a.

ASTEROID comments: 
1: soln ref.= JPL#46, OCC=0
2: source=ORB
*******************************************************************************


*******************************************************************************
Ephemeris / WWW_USER Thu Nov  6 09:17:29 2025 Pasadena, USA      / Horizons
*******************************************************************************
Target body name: 23871 Ousha (1998 RC76)         {source: JPL#46}
Center body name: Sun (10)                        {source: DE441}
Center-site name: BODY CENTER
*******************************************************************************
Start time      : A.D. 2025-Nov-05 00:00:00.0000 TDB
Stop  time      : A.D. 2060-Jan-01 00:00:00.0000 TDB
Step-size       : 1440 minutes
*******************************************************************************
Center geodetic : 0.0, 0.0, 0.0                   {E-lon(deg),Lat(deg),Alt(km)}
Center cylindric: 0.0, 0.0, 0.0                   {E-lon(deg),Dxy(km),Dz(km)}
Center radii    : 695700.0, 695700.0, 695700.0 km {Equator_a, b, pole_c}
Small perturbers: Yes                             {source: SB441-N16}
Output units    : KM-S
Calendar mode   : Mixed Julian/Gregorian
Output type     : GEOMETRIC cartesian states
Output format   : 3 (position, velocity, LT, range, range-rate)
Reference frame : Ecliptic of J2000.0
*******************************************************************************
Initial IAU76/J2000 heliocentric ecliptic osculating elements (au, days, deg.):
  EPOCH=  2458218.5 ! 2018-Apr-10.00 (TDB)         Residual RMS= .23659        
   EC= .2221606456696456   QR= 1.854499179398809   TP= 2457580.834087959       
   OM= 149.1713617488966   W=  131.0523953657826   IN= 4.994176264489051       
  Equivalent ICRF heliocentric cartesian coordinates (au, au/d):
   X=-2.157615272083613E-01  Y= 2.737493613723874E+00  Z= 9.607066989971021E-01
  VX=-8.888464450760801E-03 VY=-5.019680475692849E-04 VZ= 2.458905840362577E-04
Asteroid physical parameters (km, seconds, rotational period in hours):        
   GM= n.a.                RAD= 3.3415             ROTPER= n.a.                
   H= 14.95                G= .150                 B-V= n.a.                   
                           ALBEDO= .051            STYP= n.a.                  
*******************************************************************************
            JDTDB,            Calendar Date (TDB),                      X,                      Y,                      Z,                     VX,                     VY,                     VZ,                     LT,                     RG,                     RR,
**************************************************************************************************************************************************************************************************************************************************************************
$$SOE
2472974.500000000, A.D. 2058-Sep-03 00:00:00.0000,  1.272299314869652E+07,  4.320890539779292E+08, -3.291802632228683E+07, -1.540544567471952E+01,  1.464356164441675E+00,  5.937358149853333E-01,  1.446093345898278E+03,  4.335278786642889E+08,  9.623009253925352E-01,
2472975.500000000, A.D. 2058-Sep-04 00:00:00.0000,  1.139188791420742E+07,  4.322129473245780E+08, -3.286652752866016E+07, -1.540714412451067E+01,  1.403548262457008E+00,  5.983642412987884E-01,  1.446368748178984E+03,  4.336104421909608E+08,  9.488911646052000E-01,
2472976.500000000, A.D. 2058-Sep-05 00:00:00.0000,  1.006064406153221E+07,  4.323315876195939E+08, -3.281462926628426E+07, -1.540865446479019E+01,  1.342757787888410E+00,  6.029827754551458E-01,  1.446640285209974E+03,  4.336918469449191E+08,  9.354774935623550E-01,
2472977.500000000, A.D. 2058-Sep-06 00:00:00.0000,  8.729277834106240E+06,  4.324449763792636E+08, -3.276233239018655E+07, -1.540997690862492E+01,  1.281984984722692E+00,  6.075914094294856E-01,  1.446907955873401E+03,  4.337720925910426E+08,  9.220599750486005E-01,
2472978.500000000, A.D. 2058-Sep-07 00:00:00.0000,  7.397805457090941E+06,  4.325531151408523E+08, -3.270963775609756E+07, -1.541111166592077E+01,  1.221230094628837E+00,  6.121901349693253E-01,  1.447171759069284E+03,  4.338511787995643E+08,  9.086386702729120E-01,
2472979.500000000, A.D. 2058-Sep-08 00:00:00.0000,  6.066243137654631E+06,  4.326560054624160E+08, -3.265654622047059E+07, -1.541205894325897E+01,  1.160493357270950E+00,  6.167789436015743E-01,  1.447431693715084E+03,  4.339291052459480E+08,  8.952136391522539E-01,
2472980.500000000, A.D. 2058-Sep-09 00:00:00.0000,  4.734607065263859E+06,  4.327536489226422E+08, -3.260305864049995E+07, -1.541281894381382E+01,  1.099775010611545E+00,  6.213578266461790E-01,  1.447687758745378E+03,  4.340058716107880E+08,  8.817849405811548E-01,
2472981.500000000, A.D. 2058-Sep-10 00:00:00.0000,  3.402913411978891E+06,  4.328460471207152E+08, -3.254917587413834E+07, -1.541339186733575E+01,  1.039075291188751E+00,  6.259267752336268E-01,  1.447939953111603E+03,  4.340814775797320E+08,  8.683526326731290E-01,
2472982.500000000, A.D. 2058-Sep-11 00:00:00.0000,  2.071178332748487E+06,  4.329332016762033E+08, -3.249489878011213E+07, -1.541377791018255E+01,  9.783944343583268E-01,  6.304857803240216E-01,  1.448188275781850E+03,  4.341559228434225E+08,  8.549167729665930E-01,
2472983.500000000, A.D. 2058-Sep-12 00:00:00.0000,  7.394179657004346E+05,  4.330151142289658E+08, -3.244022821793558E+07, -1.541397726538334E+01,  9.177326744973165E-01,  6.350348327260338E-01,  1.448432725740734E+03,  4.342292070974545E+08,  8.414774185933800E-01,
2472984.500000000, A.D. 2058-Sep-13 00:00:00.0000, -5.923515675743677E+05,  4.330917864390764E+08, -3.238516504792295E+07, -1.541399012272254E+01,  8.570902451702300E-01,  6.395739231146669E-01,  1.448673301989294E+03,  4.343013300423467E+08,  8.280346264115076E-01,
2472985.500000000, A.D. 2058-Sep-14 00:00:00.0000, -1.924114161745571E+06,  4.331632199867582E+08, -3.232971013119927E+07, -1.541381666883318E+01,  7.964673792603363E-01,  6.441030420470197E-01,  1.448910003544926E+03,  4.343722913835222E+08,  8.145884531052123E-01,
2472986.500000000, A.D. 2058-Sep-15 00:00:00.0000, -3.255853727475234E+06,  4.332294165723299E+08, -3.227386432971007E+07, -1.541345708729260E+01,  7.358643090720498E-01,  6.486221799759585E-01,  1.449142829441349E+03,  4.344420908312966E+08,  8.011389552583569E-01,
2472987.500000000, A.D. 2058-Sep-16 00:00:00.0000, -4.587554191157858E+06,  4.332903779161589E+08, -3.221762850622985E+07, -1.541291155871578E+01,  6.752812664077593E-01,  6.531313272614966E-01,  1.449371778728577E+03,  4.345107281008722E+08,  7.876861894045226E-01,
2472988.500000000, A.D. 2058-Sep-17 00:00:00.0000, -5.919199494668236E+06,  4.333461057586213E+08, -3.216100352436978E+07, -1.541218026084145E+01,  6.147184826250660E-01,  6.576304741799273E-01,  1.449596850472919E+03,  4.345782029123348E+08,  7.742302120595979E-01,
2472989.500000000, A.D. 2058-Sep-18 00:00:00.0000, -7.250773595116452E+06,  4.333966018600642E+08, -3.210399024858434E+07, -1.541126336861205E+01,  5.541761886786898E-01,  6.621196109311651E-01,  1.449818043756968E+03,  4.346445149906528E+08,  7.607710797408870E-01,
2472990.500000000, A.D. 2058-Sep-19 00:00:00.0000, -8.582260464609373E+06,  4.334418680007733E+08, -3.204658954417790E+07, -1.541016105424428E+01,  4.936546151498456E-01,  6.665987276442187E-01,  1.450035357679607E+03,  4.347096640656787E+08,  7.473088489753197E-01,
2472991.500000000, A.D. 2058-Sep-20 00:00:00.0000, -9.913644090017909E+06,  4.334819059809411E+08, -3.198880227731064E+07, -1.540887348729110E+01,  4.331539922679575E-01,  6.710678143812725E-01,  1.450248791356015E+03,  4.347736498721488E+08,  7.338435763013660E-01,
2472992.500000000, A.D. 2058-Sep-21 00:00:00.0000, -1.124490847274926E+07,  4.335167176206370E+08, -3.193062931500413E+07, -1.540740083469652E+01,  3.726745499252929E-01,  6.755268611405445E-01,  1.450458343917662E+03,  4.348364721496851E+08,  7.203753182650411E-01,
2472993.500000000, A.D. 2058-Sep-22 00:00:00.0000, -1.257603762852360E+07,  4.335463047597793E+08, -3.187207152514666E+07, -1.540574326084214E+01,  3.122165176877352E-01,  6.799758578580882E-01,  1.450664014512316E+03,  4.348981306427950E+08,  7.069041314130006E-01,
2472994.500000000, A.D. 2058-Sep-23 00:00:00.0000, -1.390701558715445E+07,  4.335706692581071E+08, -3.181312977649897E+07, -1.540390092758765E+01,  2.517801248031303E-01,  6.844147944088561E-01,  1.450865802304045E+03,  4.349586251008717E+08,  6.934300722839902E-01,
2472995.500000000, A.D. 2058-Sep-24 00:00:00.0000, -1.523782639233231E+07,  4.335898129951524E+08, -3.175380493869890E+07, -1.540187399430534E+01,  1.913656002074261E-01,  6.888436606070517E-01,  1.451063706473203E+03,  4.350179552781920E+08,  6.799531973987425E-01,
